[
    {
        "Altitude(m)": 607910.997002663,
        "Argument of Periapsis(deg)": 0.0,
        "Eccentricity": 0.0,
        "Inclination(deg)": 60.0,
        "Latitude(deg)": -14.292876370245507,
        "Longitude(deg)": 38.442674777494254,
        "Mean Anomaly(deg)": -163.63639999999998,
        "RAAN(deg)": 310.0,
        "Satellite Name": "Test1 1376",
        "Satellite Number": 1376,
        "Semi-Major Axis(m)": 6980739.136638005,
        "Time(s)": 0
    },
    {
        "Altitude(m)": 608060.2300874729,
        "Argument of Periapsis(deg)": 0.00010418945913296404,
        "Eccentricity": 0.0,
        "Inclination(deg)": 60.0,
        "Latitude(deg)": -14.826537231649988,
        "Longitude(deg)": 38.73128519153911,
        "Mean Anomaly(deg)": -163.01629385453822,
        "RAAN(deg)": 309.99957995086027,
        "Satellite Name": "Test1 1376",
        "Satellite Number": 1376,
        "Semi-Major Axis(m)": 6980739.136638005,
        "Time(s)": 10
    }
]